[
    {
        "Altitude(m)": 622205.846960128,
        "Argument of Periapsis(deg)": 0.0,
        "Eccentricity": 0.0,
        "Inclination(deg)": 60.0,
        "Latitude(deg)": -52.16237875080527,
        "Longitude(deg)": 37.70052637684403,
        "Mean Anomaly(deg)": -114.54550000000008,
        "RAAN(deg)": 270.0,
        "Satellite Name": "Test1 1203",
        "Satellite Number": 1203,
        "Semi-Major Axis(m)": 6980739.136638005,
        "Time(s)": 0
    },
    {
        "Altitude(m)": 622344.7530630971,
        "Argument of Periapsis(deg)": 0.00010418945913296404,
        "Eccentricity": 0.0,
        "Inclination(deg)": 60.0,
        "Latitude(deg)": -52.51995695122196,
        "Longitude(deg)": 38.481739440334344,
        "Mean Anomaly(deg)": -113.9253938545382,
        "RAAN(deg)": 269.99957995086027,
        "Satellite Name": "Test1 1203",
        "Satellite Number": 1203,
        "Semi-Major Axis(m)": 6980739.136638005,
        "Time(s)": 10
    },
    {
        "Altitude(m)": 622480.8155147908,
        "Argument of Periapsis(deg)": 0.0002083789182659281,
        "Eccentricity": 0.0,
        "Inclination(deg)": 60.0,
        "Latitude(deg)": -52.87169852858661,
        "Longitude(deg)": 39.27628458306638,
        "Mean Anomaly(deg)": -113.30528770907637,
        "RAAN(deg)": 269.9991599017205,
        "Satellite Name": "Test1 1203",
        "Satellite Number": 1203,
        "Semi-Major Axis(m)": 6980739.136638005,
        "Time(s)": 20
    },
    {
        "Altitude(m)": 622613.9810840415,
        "Argument of Periapsis(deg)": 0.00031256837739889213,
        "Eccentricity": 0.0,
        "Inclination(deg)": 60.0,
        "Latitude(deg)": -53.21743562226398,
        "Longitude(deg)": 40.084322768984855,
        "Mean Anomaly(deg)": -112.68518156361455,
        "RAAN(deg)": 269.9987398525808,
        "Satellite Name": "Test1 1203",
        "Satellite Number": 1203,
        "Semi-Major Axis(m)": 6980739.136638005,
        "Time(s)": 30
    },
    {
        "Altitude(m)": 622744.1976499264,
        "Argument of Periapsis(deg)": 0.0004167578365318562,
        "Eccentricity": 0.0,
        "Inclination(deg)": 60.0,
        "Latitude(deg)": -53.55699696478509,
        "Longitude(deg)": 40.90600333867028,
        "Mean Anomaly(deg)": -112.06507541815272,
        "RAAN(deg)": 269.99831980344106,
        "Satellite Name": "Test1 1203",
        "Satellite Number": 1203,
        "Semi-Major Axis(m)": 6980739.136638005,
        "Time(s)": 40
    },
    {
        "Altitude(m)": 622871.414223985,
        "Argument of Periapsis(deg)": 0.0005209472956648203,
        "Eccentricity": 0.0,
        "Inclination(deg)": 60.0,
        "Latitude(deg)": -53.89020800461185,
        "Longitude(deg)": 41.741461612847004,
        "Mean Anomaly(deg)": -111.44496927269084,
        "RAAN(deg)": 269.9978997543013,
        "Satellite Name": "Test1 1203",
        "Satellite Number": 1203,
        "Semi-Major Axis(m)": 6980739.136638005,
        "Time(s)": 50
    },
    {
        "Altitude(m)": 622995.5809719847,
        "Argument of Periapsis(deg)": 0.0006251367547977843,
        "Eccentricity": 0.0,
        "Inclination(deg)": 60.0,
        "Latitude(deg)": -54.21689105288549,
        "Longitude(deg)": 42.590817945160595,
        "Mean Anomaly(deg)": -110.824863127229,
        "RAAN(deg)": 269.99747970516154,
        "Satellite Name": "Test1 1203",
        "Satellite Number": 1203,
        "Semi-Major Axis(m)": 6980739.136638005,
        "Time(s)": 60
    },
    {
        "Altitude(m)": 623116.6492351427,
        "Argument of Periapsis(deg)": 0.0007293262139307483,
        "Eccentricity": 0.0,
        "Inclination(deg)": 60.0,
        "Latitude(deg)": -54.53686545577593,
        "Longitude(deg)": 43.454176715711625,
        "Mean Anomaly(deg)": -110.20475698176719,
        "RAAN(deg)": 269.9970596560218,
        "Satellite Name": "Test1 1203",
        "Satellite Number": 1203,
        "Semi-Major Axis(m)": 6980739.136638005,
        "Time(s)": 70
    },
    {
        "Altitude(m)": 623234.5715508513,
        "Argument of Periapsis(deg)": 0.0008335156730637124,
        "Eccentricity": 0.0,
        "Inclination(deg)": 60.0,
        "Latitude(deg)": -54.849947794007825,
        "Longitude(deg)": 44.33162375812373,
        "Mean Anomaly(deg)": -109.58465083630536,
        "RAAN(deg)": 269.99663960688207,
        "Satellite Name": "Test1 1203",
        "Satellite Number": 1203,
        "Semi-Major Axis(m)": 6980739.136638005,
        "Time(s)": 80
    },
    {
        "Altitude(m)": 623349.3016728857,
        "Argument of Periapsis(deg)": 0.0009377051321966765,
        "Eccentricity": 0.0,
        "Inclination(deg)": 60.0,
        "Latitude(deg)": -55.155952111064956,
        "Longitude(deg)": 45.22322525293539,
        "Mean Anomaly(deg)": -108.96454469084348,
        "RAAN(deg)": 269.99621955774234,
        "Satellite Name": "Test1 1203",
        "Satellite Number": 1203,
        "Semi-Major Axis(m)": 6980739.136638005,
        "Time(s)": 90
    },
    {
        "Altitude(m)": 623460.7945910515,
        "Argument of Periapsis(deg)": 0.0010418945913296407,
        "Eccentricity": 0.0,
        "Inclination(deg)": 60.0,
        "Latitude(deg)": -55.45469017148105,
        "Longitude(deg)": 46.12902658300229,
        "Mean Anomaly(deg)": -108.34443854538164,
        "RAAN(deg)": 269.99579950860254,
        "Satellite Name": "Test1 1203",
        "Satellite Number": 1203,
        "Semi-Major Axis(m)": 6980739.136638005,
        "Time(s)": 100
    },
    {
        "Altitude(m)": 623569.0065503452,
        "Argument of Periapsis(deg)": 0.0011460840504626045,
        "Eccentricity": 0.0,
        "Inclination(deg)": 60.0,
        "Latitude(deg)": -55.74597175049403,
        "Longitude(deg)": 47.04904964819368,
        "Mean Anomaly(deg)": -107.72433239991983,
        "RAAN(deg)": 269.99537945946287,
        "Satellite Name": "Test1 1203",
        "Satellite Number": 1203,
        "Semi-Major Axis(m)": 6980739.136638005,
        "Time(s)": 110
    },
    {
        "Altitude(m)": 623673.8950695104,
        "Argument of Periapsis(deg)": 0.0012502735095955685,
        "Eccentricity": 0.0,
        "Inclination(deg)": 60.0,
        "Latitude(deg)": -56.029604956163375,
        "Longitude(deg)": 47.98329167695609,
        "Mean Anomaly(deg)": -107.10422625445798,
        "RAAN(deg)": 269.99495941032313,
        "Satellite Name": "Test1 1203",
        "Satellite Number": 1203,
        "Semi-Major Axis(m)": 6980739.136638005,
        "Time(s)": 120
    },
    {
        "Altitude(m)": 623775.4189590935,
        "Argument of Periapsis(deg)": 0.0013544629687285324,
        "Eccentricity": 0.0,
        "Inclination(deg)": 60.0,
        "Latitude(deg)": -56.30539658484859,
        "Longitude(deg)": 48.93172403542853,
        "Mean Anomaly(deg)": -106.48412010899622,
        "RAAN(deg)": 269.99453936118334,
        "Satellite Name": "Test1 1203",
        "Satellite Number": 1203,
        "Semi-Major Axis(m)": 6980739.136638005,
        "Time(s)": 130
    },
    {
        "Altitude(m)": 623873.5383389074,
        "Argument of Periapsis(deg)": 0.0014586524278614966,
        "Eccentricity": 0.0,
        "Inclination(deg)": 60.0,
        "Latitude(deg)": -56.573152510696005,
        "Longitude(deg)": 49.89428953654373,
        "Mean Anomaly(deg)": -105.86401396353438,
        "RAAN(deg)": 269.9941193120436,
        "Satellite Name": "Test1 1203",
        "Satellite Number": 1203,
        "Semi-Major Axis(m)": 6980739.136638005,
        "Time(s)": 140
    },
    {
        "Altitude(m)": 623968.2146549503,
        "Argument of Periapsis(deg)": 0.0015628418869944607,
        "Eccentricity": 0.0,
        "Inclination(deg)": 60.0,
        "Latitude(deg)": -56.83267810947973,
        "Longitude(deg)": 50.87090129189119,
        "Mean Anomaly(deg)": -105.24390781807257,
        "RAAN(deg)": 269.9936992629039,
        "Satellite Name": "Test1 1203",
        "Satellite Number": 1203,
        "Semi-Major Axis(m)": 6980739.136638005,
        "Time(s)": 150
    },
    {
        "Altitude(m)": 624059.4106957403,
        "Argument of Periapsis(deg)": 0.0016670313461274247,
        "Eccentricity": 0.0,
        "Inclination(deg)": 60.0,
        "Latitude(deg)": -57.08377871681186,
        "Longitude(deg)": 51.86144161218981,
        "Mean Anomaly(deg)": -104.62380167261072,
        "RAAN(deg)": 269.99327921376414,
        "Satellite Name": "Test1 1203",
        "Satellite Number": 1203,
        "Semi-Major Axis(m)": 6980739.136638005,
        "Time(s)": 160
    },
    {
        "Altitude(m)": 624147.0906080764,
        "Argument of Periapsis(deg)": 0.0017712208052603888,
        "Eccentricity": 0.0,
        "Inclination(deg)": 60.0,
        "Latitude(deg)": -57.32626012035334,
        "Longitude(deg)": 52.865759463788585,
        "Mean Anomaly(deg)": -104.00369552714896,
        "RAAN(deg)": 269.9928591646244,
        "Satellite Name": "Test1 1203",
        "Satellite Number": 1203,
        "Semi-Major Axis(m)": 6980739.136638005,
        "Time(s)": 170
    },
    {
        "Altitude(m)": 624231.2199122192,
        "Argument of Periapsis(deg)": 0.001875410264393353,
        "Eccentricity": 0.0,
        "Inclination(deg)": 60.0,
        "Latitude(deg)": -57.55992908522684,
        "Longitude(deg)": 53.88366952864823,
        "Mean Anomaly(deg)": -103.38358938168712,
        "RAAN(deg)": 269.9924391154846,
        "Satellite Name": "Test1 1203",
        "Satellite Number": 1203,
        "Semi-Major Axis(m)": 6980739.136638005,
        "Time(s)": 180
    },
    {
        "Altitude(m)": 624311.7655164845,
        "Argument of Periapsis(deg)": 0.0019795997235263173,
        "Eccentricity": 0.0,
        "Inclination(deg)": 60.0,
        "Latitude(deg)": -57.78459391137269,
        "Longitude(deg)": 54.91495137784949,
        "Mean Anomaly(deg)": -102.76348323622531,
        "RAAN(deg)": 269.99201906634494,
        "Satellite Name": "Test1 1203",
        "Satellite Number": 1203,
        "Semi-Major Axis(m)": 6980739.136638005,
        "Time(s)": 190
    }
]